OBJECT B                
1 51825U 22019B   25199.89867629  .00017230  00000+0  40837-3 0  9993
2 51825  97.3836 276.9637 0008274 263.2106  96.8200 15.41781404187950
